start=new Date('2023-05-15T00:00:00.000Z').valueOf();
sats=[{"LAUNCH_DATE":"2022-03-09","TIME_SYSTEM":"UTC","SITE":"AFETR","ARG_OF_PERICENTER":"105.6548","PERIOD":"95.644","EPOCH":"2023-05-14T18:24:26.783424","RA_OF_ASC_NODE":"333.9167","INCLINATION":"53.1068","MEAN_ELEMENT_THEORY":"SGP4","TLE_LINE2":"2 51966  53.1068 333.9167 0001071 105.6548 254.4560 15.05587591 65690","FILE":"3908005","MEAN_ANOMALY":"254.4560","REF_FRAME":"TEME","REV_AT_EPOCH":"6569","CENTER_NAME":"EARTH","DECAY_DATE":null,"APOAPSIS":"550.447","MEAN_MOTION_DDOT":"0.0000000000000","PERIAPSIS":"548.963","TLE_LINE1":"1 51966U 22025L   23134.76697666  .00000626  00000-0  62093-4 0  9992","MEAN_MOTION":"15.05587591","SEMIMAJOR_AXIS":"6927.840","NORAD_CAT_ID":"51966","MEAN_MOTION_DOT":"0.00000626","OBJECT_NAME":"STARLINK-3699","RCS_SIZE":"LARGE","GP_ID":"231853926","CLASSIFICATION_TYPE":"U","OBJECT_TYPE":"PAYLOAD","OBJECT_ID":"2022-025L","ECCENTRICITY":"0.00010710","COUNTRY_CODE":"US","EPHEMERIS_TYPE":"0","BSTAR":"0.00006209300000","ELEMENT_SET_NO":"999"},{"MEAN_ELEMENT_THEORY":"SGP4","RA_OF_ASC_NODE":"332.2902","INCLINATION":"53.1023","REF_FRAME":"TEME","MEAN_ANOMALY":"260.2985","FILE":"3908005","TLE_LINE2":"2 51968  53.1023 332.2902 0000926  99.8110 260.2985 15.08037303 65723","REV_AT_EPOCH":"6572","APOAPSIS":"542.841","MEAN_MOTION_DDOT":"0.0000000000000","CENTER_NAME":"EARTH","DECAY_DATE":null,"ARG_OF_PERICENTER":"99.8110","TIME_SYSTEM":"UTC","LAUNCH_DATE":"2022-03-09","SITE":"AFETR","EPOCH":"2023-05-14T20:10:26.374656","PERIOD":"95.488","EPHEMERIS_TYPE":"0","COUNTRY_CODE":"US","BSTAR":"-0.00005634300000","ELEMENT_SET_NO":"999","MEAN_MOTION":"15.08037303","PERIAPSIS":"541.559","TLE_LINE1":"1 51968U 22025N   23134.84058304 -.00001163  00000-0 -56343-4 0  9993","MEAN_MOTION_DOT":"-0.00001163","SEMIMAJOR_AXIS":"6920.335","NORAD_CAT_ID":"51968","RCS_SIZE":"LARGE","GP_ID":"231853676","CLASSIFICATION_TYPE":"U","OBJECT_NAME":"STARLINK-3681","OBJECT_ID":"2022-025N","ECCENTRICITY":"0.00009260","OBJECT_TYPE":"PAYLOAD"},{"ARG_OF_PERICENTER":"86.7443","LAUNCH_DATE":"2022-03-09","TIME_SYSTEM":"UTC","SITE":"AFETR","EPOCH":"2023-05-14T19:24:30.567168","PERIOD":"95.489","MEAN_ELEMENT_THEORY":"SGP4","RA_OF_ASC_NODE":"332.0545","INCLINATION":"53.0520","MEAN_ANOMALY":"273.3659","REF_FRAME":"TEME","FILE":"3908005","TLE_LINE2":"2 51969  53.0520 332.0545 0000985  86.7443 273.3659 15.08032870 65711","REV_AT_EPOCH":"6571","APOAPSIS":"542.895","MEAN_MOTION_DDOT":"0.0000000000000","CENTER_NAME":"EARTH","DECAY_DATE":null,"MEAN_MOTION":"15.08032870","PERIAPSIS":"541.532","TLE_LINE1":"1 51969U 22025P   23134.80868712  .00000301  00000-0  37696-4 0  9993","MEAN_MOTION_DOT":"0.00000301","SEMIMAJOR_AXIS":"6920.349","NORAD_CAT_ID":"51969","RCS_SIZE":"LARGE","CLASSIFICATION_TYPE":"U","GP_ID":"231854927","OBJECT_NAME":"STARLINK-3680","OBJECT_ID":"2022-025P","ECCENTRICITY":"0.00009850","OBJECT_TYPE":"PAYLOAD","EPHEMERIS_TYPE":"0","COUNTRY_CODE":"US","BSTAR":"0.00003769600000","ELEMENT_SET_NO":"999"},{"BSTAR":"0.00003027500000","ELEMENT_SET_NO":"999","COUNTRY_CODE":"US","EPHEMERIS_TYPE":"0","OBJECT_NAME":"STARLINK-3677","RCS_SIZE":"LARGE","GP_ID":"231858251","CLASSIFICATION_TYPE":"U","OBJECT_TYPE":"PAYLOAD","OBJECT_ID":"2022-025Q","ECCENTRICITY":"0.00012210","PERIAPSIS":"548.848","TLE_LINE1":"1 51970U 22025Q   23135.02179446  .00000162  00000-0  30275-4 0  9990","MEAN_MOTION":"15.05591160","SEMIMAJOR_AXIS":"6927.829","NORAD_CAT_ID":"51970","MEAN_MOTION_DOT":"0.00000162","REV_AT_EPOCH":"6682","CENTER_NAME":"EARTH","DECAY_DATE":null,"APOAPSIS":"550.540","MEAN_MOTION_DDOT":"0.0000000000000","RA_OF_ASC_NODE":"332.7758","INCLINATION":"53.1078","MEAN_ELEMENT_THEORY":"SGP4","FILE":"3908028","TLE_LINE2":"2 51970  53.1078 332.7758 0001221  89.3498 270.7632 15.05591160 66822","MEAN_ANOMALY":"270.7632","REF_FRAME":"TEME","TIME_SYSTEM":"UTC","LAUNCH_DATE":"2022-03-09","SITE":"AFETR","ARG_OF_PERICENTER":"89.3498","PERIOD":"95.643","EPOCH":"2023-05-15T00:31:23.041344"},{"MEAN_ELEMENT_THEORY":"SGP4","INCLINATION":"53.1022","RA_OF_ASC_NODE":"332.2510","REF_FRAME":"TEME","MEAN_ANOMALY":"265.7050","FILE":"3908005","TLE_LINE2":"2 51971  53.1022 332.2510 0000879  94.4041 265.7050 15.08029207 65729","REV_AT_EPOCH":"6572","MEAN_MOTION_DDOT":"0.0000000000000","APOAPSIS":"542.833","DECAY_DATE":null,"CENTER_NAME":"EARTH","ARG_OF_PERICENTER":"94.4041","SITE":"AFETR","TIME_SYSTEM":"UTC","LAUNCH_DATE":"2022-03-09","EPOCH":"2023-05-14T20:21:27.891936","PERIOD":"95.489","EPHEMERIS_TYPE":"0","COUNTRY_CODE":"US","BSTAR":"-0.00004014000000","ELEMENT_SET_NO":"999","MEAN_MOTION":"15.08029207","TLE_LINE1":"1 51971U 22025R   23134.84823949 -.00000910  00000-0 -40140-4 0  9999","PERIAPSIS":"541.616","MEAN_MOTION_DOT":"-0.00000910","NORAD_CAT_ID":"51971","SEMIMAJOR_AXIS":"6920.360","GP_ID":"231853426","CLASSIFICATION_TYPE":"U","RCS_SIZE":"LARGE","OBJECT_NAME":"STARLINK-3669","ECCENTRICITY":"0.00008790","OBJECT_ID":"2022-025R","OBJECT_TYPE":"PAYLOAD"},{"TLE_LINE2":"2 51972  53.1126 333.6785 0001167  85.6802 274.4321 15.05588762 65701","FILE":"3908005","MEAN_ANOMALY":"274.4321","REF_FRAME":"TEME","INCLINATION":"53.1126","RA_OF_ASC_NODE":"333.6785","MEAN_ELEMENT_THEORY":"SGP4","DECAY_DATE":null,"CENTER_NAME":"EARTH","MEAN_MOTION_DDOT":"0.0000000000000","APOAPSIS":"550.509","REV_AT_EPOCH":"6570","PERIOD":"95.644","EPOCH":"2023-05-14T19:28:36.655968","SITE":"AFETR","TIME_SYSTEM":"UTC","LAUNCH_DATE":"2022-03-09","ARG_OF_PERICENTER":"85.6802","COUNTRY_CODE":"US","EPHEMERIS_TYPE":"0","ELEMENT_SET_NO":"999","BSTAR":"0.00005227100000","NORAD_CAT_ID":"51972","SEMIMAJOR_AXIS":"6927.836","MEAN_MOTION_DOT":"0.00000483","TLE_LINE1":"1 51972U 22025S   23134.81153537  .00000483  00000-0  52271-4 0  9997","PERIAPSIS":"548.893","MEAN_MOTION":"15.05588762","OBJECT_TYPE":"PAYLOAD","ECCENTRICITY":"0.00011670","OBJECT_ID":"2022-025S","OBJECT_NAME":"STARLINK-3671","GP_ID":"231854177","CLASSIFICATION_TYPE":"U","RCS_SIZE":"LARGE"},{"MEAN_MOTION":"15.05589132","TLE_LINE1":"1 51973U 22025T   23134.95896756  .00001635  00000-0  13131-3 0  9991","PERIAPSIS":"548.932","MEAN_MOTION_DOT":"0.00001635","NORAD_CAT_ID":"51973","SEMIMAJOR_AXIS":"6927.835","CLASSIFICATION_TYPE":"U","GP_ID":"231858050","RCS_SIZE":"LARGE","OBJECT_NAME":"STARLINK-3679","ECCENTRICITY":"0.00011090","OBJECT_ID":"2022-025T","OBJECT_TYPE":"PAYLOAD","EPHEMERIS_TYPE":"0","COUNTRY_CODE":"US","BSTAR":"0.00013131000000","ELEMENT_SET_NO":"999","ARG_OF_PERICENTER":"87.1475","SITE":"AFETR","LAUNCH_DATE":"2022-03-09","TIME_SYSTEM":"UTC","EPOCH":"2023-05-14T23:00:54.797184","PERIOD":"95.644","MEAN_ELEMENT_THEORY":"SGP4","INCLINATION":"53.1073","RA_OF_ASC_NODE":"333.0559","MEAN_ANOMALY":"272.9641","REF_FRAME":"TEME","FILE":"3908032","TLE_LINE2":"2 51973  53.1073 333.0559 0001109  87.1475 272.9641 15.05589132 66818","REV_AT_EPOCH":"6681","MEAN_MOTION_DDOT":"0.0000000000000","APOAPSIS":"550.468","DECAY_DATE":null,"CENTER_NAME":"EARTH"},{"MEAN_MOTION_DOT":"0.00000382","SEMIMAJOR_AXIS":"6927.841","NORAD_CAT_ID":"51974","MEAN_MOTION":"15.05587112","PERIAPSIS":"548.883","TLE_LINE1":"1 51974U 22025U   23134.94058027  .00000382  00000-0  45391-4 0  9994","OBJECT_ID":"2022-025U","ECCENTRICITY":"0.00011880","OBJECT_TYPE":"PAYLOAD","RCS_SIZE":"LARGE","GP_ID":"231858395","CLASSIFICATION_TYPE":"U","OBJECT_NAME":"STARLINK-3672","EPHEMERIS_TYPE":"0","COUNTRY_CODE":"US","ELEMENT_SET_NO":"999","BSTAR":"0.00004539100000","EPOCH":"2023-05-14T22:34:26.135328","PERIOD":"95.644","ARG_OF_PERICENTER":"87.7292","LAUNCH_DATE":"2022-03-09","TIME_SYSTEM":"UTC","SITE":"AFETR","REF_FRAME":"TEME","MEAN_ANOMALY":"272.3833","TLE_LINE2":"2 51974  53.1126 333.0995 0001188  87.7292 272.3833 15.05587112 66804","FILE":"3908034","MEAN_ELEMENT_THEORY":"SGP4","RA_OF_ASC_NODE":"333.0995","INCLINATION":"53.1126","APOAPSIS":"550.529","MEAN_MOTION_DDOT":"0.0000000000000","CENTER_NAME":"EARTH","DECAY_DATE":null,"REV_AT_EPOCH":"6680"},{"PERIAPSIS":"534.093","TLE_LINE1":"1 51975U 22025V   23134.80491419  .00000382  00000-0  40511-4 0  9995","MEAN_MOTION":"15.10494516","SEMIMAJOR_AXIS":"6912.828","NORAD_CAT_ID":"51975","MEAN_MOTION_DOT":"0.00000382","OBJECT_NAME":"STARLINK-3674","RCS_SIZE":"LARGE","GP_ID":"231853927","CLASSIFICATION_TYPE":"U","OBJECT_TYPE":"PAYLOAD","OBJECT_ID":"2022-025V","ECCENTRICITY":"0.00008670","COUNTRY_CODE":"US","EPHEMERIS_TYPE":"0","BSTAR":"0.00004051100000","ELEMENT_SET_NO":"999","LAUNCH_DATE":"2022-03-09","TIME_SYSTEM":"UTC","SITE":"AFETR","ARG_OF_PERICENTER":"79.0035","PERIOD":"95.333","EPOCH":"2023-05-14T19:19:04.586016","RA_OF_ASC_NODE":"330.8551","INCLINATION":"53.1069","MEAN_ELEMENT_THEORY":"SGP4","TLE_LINE2":"2 51975  53.1069 330.8551 0000867  79.0035 281.1054 15.10494516 65742","FILE":"3908005","REF_FRAME":"TEME","MEAN_ANOMALY":"281.1054","REV_AT_EPOCH":"6574","CENTER_NAME":"EARTH","DECAY_DATE":null,"APOAPSIS":"535.292","MEAN_MOTION_DDOT":"0.0000000000000"},{"ELEMENT_SET_NO":"999","BSTAR":"-0.00012359000000","EPHEMERIS_TYPE":"0","COUNTRY_CODE":"US","OBJECT_ID":"2022-025W","ECCENTRICITY":"0.00013660","OBJECT_TYPE":"PAYLOAD","RCS_SIZE":"LARGE","GP_ID":"231858401","CLASSIFICATION_TYPE":"U","OBJECT_NAME":"STARLINK-3663","MEAN_MOTION_DOT":"-0.00002255","SEMIMAJOR_AXIS":"6917.868","NORAD_CAT_ID":"51976","MEAN_MOTION":"15.08844005","PERIAPSIS":"538.788","TLE_LINE1":"1 51976U 22025W   23134.98428672 -.00002255  00000-0 -12359-3 0  9997","APOAPSIS":"540.678","MEAN_MOTION_DDOT":"0.0000000000000","CENTER_NAME":"EARTH","DECAY_DATE":null,"REV_AT_EPOCH":"6672","REF_FRAME":"TEME","MEAN_ANOMALY":"284.0405","TLE_LINE2":"2 51976  53.2174 341.6558 0001366  76.0739 284.0405 15.08844005 66721","FILE":"3908035","MEAN_ELEMENT_THEORY":"SGP4","RA_OF_ASC_NODE":"341.6558","INCLINATION":"53.2174","EPOCH":"2023-05-14T23:37:22.372608","PERIOD":"95.437","ARG_OF_PERICENTER":"76.0739","LAUNCH_DATE":"2022-03-09","TIME_SYSTEM":"UTC","SITE":"AFETR"}];
